NORAD_CAT_ID,OBJECT_NAME,OBJECT_TYPE,EPOCH,MEAN_MOTION,ECCENTRICITY,INCLINATION,RA_OF_ASC_NODE,ARG_OF_PERICENTER,MEAN_ANOMALY,BSTAR,MEAN_MOTION_DOT,MEAN_MOTION_DDOT,TLE_LINE0,TLE_LINE1,TLE_LINE2,SEMIMAJOR_AXIS,PERIOD,APOGEE,PERIGEE,DECAYED
55397.0,STARLINK-5224,PAYLOAD,2023-02-07 16:00:01,15.72345598,0.0003422,70.0083,70.0728,272.1907,316.0252,-0.010683,-0.01275789,0.0,0 STARLINK-5224,1 55397U 23014G   23038.66668981 -.01275789  00000-0 -10683-1 0  9995,2 55397  70.0083  70.0728 0003422 272.1907 316.0252 15.72345598  1304,6730.332,91.583,354.5,349.894,0.0
55397.0,STARLINK-5224,PAYLOAD,2023-02-07 22:00:00,15.71625897,0.0003501,70.0085,69.3679,267.3025,295.2145,-0.0098558,-0.01135465,0.0,0 STARLINK-5224,1 55397U 23014G   23038.91667824 -.01135465  00000-0 -98558-2 0  9992,2 55397  70.0085  69.3679 0003501 267.3025 295.2145 15.71625897  1308,6732.387,91.625,356.609,351.895,0.0
55397.0,STARLINK-5224,PAYLOAD,2023-02-08 06:00:00,15.70696505,0.0003586,70.0087,68.4292,268.6834,18.7288,-0.008612,-0.00970511,0.0,0 STARLINK-5224,1 55397U 23014G   23039.25001157 -.00970511  00000-0 -86120-2 0  9991,2 55397  70.0087  68.4292 0003586 268.6834  18.7288 15.70696505  1394,6735.042,91.679,359.322,354.492,0.0
55397.0,STARLINK-5224,PAYLOAD,2023-02-08 14:00:01,15.69930365,0.0003605,70.0078,67.4916,273.8438,97.3867,-7.2948e-05,-8.977e-05,0.0,0 STARLINK-5224,1 55397U 23014G   23039.58334491 -.00008977  00000-0 -72948-4 0  9990,2 55397  70.0078  67.4916 0003605 273.8438  97.3867 15.69930365  1441,6737.233,91.724,361.527,356.669,0.0
55397.0,STARLINK-5224,PAYLOAD,2023-02-08 20:00:01,15.69896418,0.0003483,70.007,66.7892,267.5635,76.1864,0.00028502,0.00034159,0.0,0 STARLINK-5224,1 55397U 23014G   23039.83334491  .00034159  00000-0  28502-3 0  9993,2 55397  70.0070  66.7892 0003483 267.5635  76.1864 15.69896418  1308,6737.33,91.726,361.542,356.849,0.0
55397.0,STARLINK-5224,PAYLOAD,2023-02-09 12:00:00,15.69889209,0.0003527,70.003,64.9156,275.3221,235.0994,0.00047509,0.00057222,0.0,0 STARLINK-5224,1 55397U 23014G   23040.50001157  .00057222  00000-0  47509-3 0  9993,2 55397  70.0030  64.9156 0003527 275.3221 235.0994 15.69889209  1304,6737.351,91.726,361.592,356.84,0.0
55397.0,STARLINK-5224,PAYLOAD,2023-02-09 20:00:01,15.69876692,0.0003455,70.0014,63.9784,268.4398,325.3186,0.00063342,0.00076499,0.0,0 STARLINK-5224,1 55397U 23014G   23040.83334491  .00076499  00000-0  63342-3 0  9999,2 55397  70.0014  63.9784 0003455 268.4398 325.3186 15.69876692  1645,6737.387,91.727,361.58,356.924,0.0
55397.0,STARLINK-5224,PAYLOAD,2023-02-09 22:00:00,15.69865282,0.0003478,70.0011,63.7441,266.2971,78.2907,0.0010368,0.00126038,0.0,0 STARLINK-5224,1 55397U 23014G   23040.91667824  .00126038  00000-0  10368-2 0  9991,2 55397  70.0011  63.7441 0003478 266.2971  78.2907 15.69865282  1309,6737.419,91.728,361.628,356.941,0.0
55397.0,STARLINK-5224,PAYLOAD,2023-02-10 02:00:01,15.69947425,0.000345,70.0009,63.2756,266.1949,300.0346,-0.00024703,-0.0002984,0.0,0 STARLINK-5224,1 55397U 23014G   23041.08334491 -.00029840  00000-0 -24703-3 0  9995,2 55397  70.0009  63.2756 0003450 266.1949 300.0346 15.69947425  1677,6737.184,91.723,361.374,356.725,0.0
55397.0,STARLINK-5224,PAYLOAD,2023-02-10 04:00:00,15.69956171,0.0003488,70.0006,63.0413,268.2188,48.8466,-0.00047467,-0.00056979,0.0,0 STARLINK-5224,1 55397U 23014G   23041.16667824 -.00056979  00000-0 -47467-3 0  9998,2 55397  70.0006  63.0413 0003488 268.2188  48.8466 15.69956171  1309,6737.159,91.722,361.374,356.674,0.0
55397.0,STARLINK-5224,PAYLOAD,2023-02-10 22:00:00,15.69834741,0.000337,69.9996,60.9326,260.0928,334.5118,0.0013804,0.0016852,0.0,0 STARLINK-5224,1 55397U 23014G   23041.91667824  .00168520  00000-0  13804-2 0  9992,2 55397  69.9996  60.9326 0003370 260.0928 334.5118 15.69834741  1302,6737.507,91.729,361.642,357.101,0.0
55397.0,STARLINK-5224,PAYLOAD,2023-02-11 06:00:00,15.69951005,0.0003372,69.9997,59.9956,263.896,54.0173,-0.00057401,-0.00068747,0.0,0 STARLINK-5224,1 55397U 23014G   23042.25001157 -.00068747  00000-0 -57401-3 0  9995,2 55397  69.9997  59.9956 0003372 263.8960  54.0173 15.69951005  1868,6737.174,91.723,361.311,356.767,0.0
55397.0,STARLINK-5224,PAYLOAD,2023-02-11 14:00:01,15.69924473,0.000335,69.999,59.0583,265.8421,135.413,-0.0002532,-0.00030548,0.0,0 STARLINK-5224,1 55397U 23014G   23042.58334491 -.00030548  00000-0 -25320-3 0  9994,2 55397  69.9990  59.0583 0003350 265.8421 135.4130 15.69924473  1303,6737.25,91.724,361.372,356.858,0.0
55397.0,STARLINK-5224,PAYLOAD,2023-02-11 22:00:00,15.69867403,0.0003418,69.999,58.1211,257.0894,227.5013,0.0011036,0.00134316,0.0,0 STARLINK-5224,1 55397U 23014G   23042.91667824  .00134316  00000-0  11036-2 0  9994,2 55397  69.9990  58.1211 0003418 257.0894 227.5013 15.69867403  1967,6737.413,91.727,361.581,356.976,0.0
55397.0,STARLINK-5224,PAYLOAD,2023-02-12 00:00:00,15.69920511,0.0003412,69.9991,57.8869,256.968,338.4367,0.00039831,0.00047948,0.0,0 STARLINK-5224,1 55397U 23014G   23043.00001157  .00047948  00000-0  39831-3 0  9994,2 55397  69.9991  57.8869 0003412 256.9680 338.4367 15.69920511  1984,6737.261,91.724,361.425,356.828,0.0
55397.0,STARLINK-5224,PAYLOAD,2023-02-12 22:00:00,15.69867495,0.000323,69.9995,55.3095,260.5793,114.0229,0.0010733,0.0013056,0.0,0 STARLINK-5224,1 55397U 23014G   23043.91667824  .00130560  00000-0  10733-2 0  9995,2 55397  69.9995  55.3095 0003230 260.5793 114.0229 15.69867495  2129,6737.413,91.727,361.454,357.102,0.0
55397.0,STARLINK-5224,PAYLOAD,2023-02-13 06:00:00,15.69942932,0.0003349,69.9998,54.3724,265.4289,192.4955,-0.00036749,-0.00044203,0.0,0 STARLINK-5224,1 55397U 23014G   23044.25001157 -.00044203  00000-0 -36749-3 0  9990,2 55397  69.9998  54.3724 0003349 265.4289 192.4955 15.69942932  2176,6737.197,91.723,361.319,356.806,0.0
55397.0,STARLINK-5224,PAYLOAD,2023-02-13 14:00:01,15.69921659,0.0003424,69.9993,53.4352,268.1267,273.1335,-0.00016705,-0.00020249,0.0,0 STARLINK-5224,1 55397U 23014G   23044.58334491 -.00020249  00000-0 -16705-3 0  9990,2 55397  69.9993  53.4352 0003424 268.1267 273.1335 15.69921659  1304,6737.258,91.724,361.43,356.816,0.0
55397.0,STARLINK-5224,PAYLOAD,2023-02-13 22:00:00,15.69900571,0.0003546,69.9994,52.498,262.8575,1.7388,0.00061448,0.0007426,0.0,0 STARLINK-5224,1 55397U 23014G   23044.91667824  .00074260  00000-0  61448-3 0  9990,2 55397  69.9994  52.4980 0003546 262.8575   1.7388 15.69900571  2280,6737.318,91.726,361.573,356.794,0.0
55397.0,STARLINK-5224,PAYLOAD,2023-02-14 10:38:22,15.69947064,0.0003704,70.0006,51.0176,270.6481,89.4291,0.00022735,0.00027241,0.0,0 STARLINK-5224,1 55397U 23014G   23045.44331030  .00027241  00000-0  22735-3 0  9999,2 55397  70.0006  51.0176 0003704 270.6481  89.4291 15.69947064  2361,6737.185,91.723,361.546,356.555,0.0
55397.0,STARLINK-5224,PAYLOAD,2023-02-14 12:10:07,15.69943845,0.00033,69.9998,50.8374,268.0243,92.0575,0.0001993,0.00023839,0.0,0 STARLINK-5224,1 55397U 23014G   23045.50702720  .00023839  00000-0  19930-3 0  9996,2 55397  69.9998  50.8374 0003300 268.0243  92.0575 15.69943845  3318,6737.195,91.723,361.283,356.836,0.0
55397.0,STARLINK-5224,PAYLOAD,2023-02-15 03:27:38,15.69925094,0.0003486,69.9991,49.0469,263.2306,96.8493,2.5142e-05,2.811e-05,0.0,0 STARLINK-5224,1 55397U 23014G   23046.14419515  .00002811  00000-0  25142-4 0  9994,2 55397  69.9991  49.0469 0003486 263.2306  96.8493 15.69925094  2471,6737.248,91.724,361.462,356.765,0.0
55397.0,STARLINK-5224,PAYLOAD,2023-02-15 12:38:08,15.69940903,0.0004027,69.9992,47.9716,261.5462,98.5277,8.2694e-05,9.75e-05,0.0,0 STARLINK-5224,1 55397U 23014G   23046.52649015  .00009750  00000-0  82694-4 0  9990,2 55397  69.9992  47.9716 0004027 261.5462  98.5277 15.69940903  3476,6737.203,91.723,361.781,356.355,0.0
55397.0,STARLINK-5224,PAYLOAD,2023-02-15 20:16:54,15.69930417,0.0003571,69.9991,47.076,268.6722,91.4064,4.2168e-05,4.862e-05,0.0,0 STARLINK-5224,1 55397U 23014G   23046.84507685  .00004862  00000-0  42168-4 0  9992,2 55397  69.9991  47.0760 0003571 268.6722  91.4064 15.69930417  3526,6737.233,91.724,361.504,356.692,0.0
55397.0,STARLINK-5224,PAYLOAD,2023-02-16 02:23:54,15.69958732,0.0003515,69.999,46.3587,259.3474,100.7326,0.00022433,0.00026887,0.0,0 STARLINK-5224,1 55397U 23014G   23047.09993740  .00026887  00000-0  22433-3 0  9994,2 55397  69.9990  46.3587 0003515 259.3474 100.7326 15.69958732  2628,6737.152,91.722,361.385,356.649,0.0
55397.0,STARLINK-5224,PAYLOAD,2023-02-16 10:02:40,15.69906304,0.0003412,69.9988,45.4636,270.4652,89.6152,-6.032e-05,-7.454e-05,0.0,0 STARLINK-5224,1 55397U 23014G   23047.41853005 -.00007454  00000-0 -60320-4 0  9998,2 55397  69.9988  45.4636 0003412 270.4652  89.6152 15.69906304  2673,6737.302,91.725,361.466,356.868,0.0
55397.0,STARLINK-5224,PAYLOAD,2023-02-16 14:37:56,15.69908415,0.0003248,69.9987,44.9255,272.9138,87.1686,5.9284e-05,6.917e-05,0.0,0 STARLINK-5224,1 55397U 23014G   23047.60968366  .00006917  00000-0  59284-4 0  9994,2 55397  69.9987  44.9255 0003248 272.9138  87.1686 15.69908415  3644,6737.296,91.725,361.349,356.973,0.0
55397.0,STARLINK-5224,PAYLOAD,2023-02-16 19:13:11,15.69937857,0.0003353,69.9987,44.3883,270.8751,89.206,0.00035191,0.00042339,0.0,0 STARLINK-5224,1 55397U 23014G   23047.80083307  .00042339  00000-0  35191-3 0  9997,2 55397  69.9987  44.3883 0003353 270.8751  89.2060 15.69937857  2730,6737.212,91.723,361.336,356.818,0.0
55397.0,STARLINK-5224,PAYLOAD,2023-02-16 20:44:57,15.69934394,0.0003305,69.9987,44.2087,273.9413,86.1404,0.00056018,0.00067718,0.0,0 STARLINK-5224,1 55397U 23014G   23047.86455116  .00067718  00000-0  56018-3 0  9993,2 55397  69.9987  44.2087 0003305 273.9413  86.1404 15.69934394  3687,6737.222,91.724,361.313,356.86,0.0
55397.0,STARLINK-5224,PAYLOAD,2023-02-17 02:51:57,15.69937231,0.0003279,69.9985,43.492,272.8168,87.2652,0.0003779,0.00045497,0.0,0 STARLINK-5224,1 55397U 23014G   23048.11941739  .00045497  00000-0  37790-3 0  9999,2 55397  69.9985  43.4920 0003279 272.8168  87.2652 15.69937231  2787,6737.214,91.723,361.288,356.869,0.0
